[{"OBJECT_NAME":"STARLINK-30204","OBJECT_ID":"2023-107R","EPOCH":"2026-03-09T03:23:43.752768","MEAN_MOTION":15.26731738,"ECCENTRICITY":0.00018257,"INCLINATION":43.0031,"RA_OF_ASC_NODE":339.1618,"ARG_OF_PERICENTER":10.6068,"MEAN_ANOMALY":349.4822,"EPHEMERIS_TYPE":0,"CLASSIFICATION_TYPE":"U","NORAD_CAT_ID":57472,"ELEMENT_SET_NO":999,"REV_AT_EPOCH":14506,"BSTAR":6.1620178e-5,"MEAN_MOTION_DOT":1.393e-5,"MEAN_MOTION_DDOT":0},{"OBJECT_NAME":"TIANMU-1 13","OBJECT_ID":"2023-205C","EPOCH":"2026-03-10T00:00:50.036832","MEAN_MOTION":15.25862583,"ECCENTRICITY":0.00064025,"INCLINATION":97.3565,"RA_OF_ASC_NODE":92.1641,"ARG_OF_PERICENTER":331.9635,"MEAN_ANOMALY":28.1258,"EPHEMERIS_TYPE":0,"CLASSIFICATION_TYPE":"U","NORAD_CAT_ID":58647,"ELEMENT_SET_NO":999,"REV_AT_EPOCH":12237,"BSTAR":0.00032666188,"MEAN_MOTION_DOT":8.299e-5,"MEAN_MOTION_DDOT":0}]
